NORAD_CAT_ID,OBJECT_NAME,OBJECT_TYPE,EPOCH,MEAN_MOTION,ECCENTRICITY,INCLINATION,RA_OF_ASC_NODE,ARG_OF_PERICENTER,MEAN_ANOMALY,BSTAR,MEAN_MOTION_DOT,MEAN_MOTION_DDOT,TLE_LINE0,TLE_LINE1,TLE_LINE2,SEMIMAJOR_AXIS,PERIOD,APOGEE,PERIGEE,DECAYED
54787.0,STARLINK-5441,PAYLOAD,2024-06-04 23:11:49,15.08830108,0.0001586,53.217,49.1388,77.4577,282.6593,-3.5285e-05,-8.49e-06,0.0,0 STARLINK-5441,1 54787U 22175AF  24156.96654159 -.00000849  00000-0 -35285-4 0  9991,2 54787  53.2170  49.1388 0001586  77.4577 282.6593 15.08830108 82897,6917.911,95.438,540.873,538.678,0.0
54787.0,STARLINK-5441,PAYLOAD,2024-06-05 10:19:30,15.08839824,0.0001454,53.2204,47.0553,90.9048,269.211,-4.4798e-05,-1.001e-05,0.0,0 STARLINK-5441,1 54787U 22175AF  24157.43021608 -.00001001  00000-0 -44798-4 0  9991,2 54787  53.2204  47.0553 0001454  90.9048 269.2110 15.08839824 80802,6917.881,95.438,540.752,538.74,0.0
54787.0,STARLINK-5441,PAYLOAD,2024-06-05 16:41:03,15.08828963,0.0001322,53.222,45.8654,97.2909,262.8234,-1.6612e-05,-5.52e-06,0.0,0 STARLINK-5441,1 54787U 22175AF  24157.69518105 -.00000552  00000-0 -16612-4 0  9996,2 54787  53.2220  45.8654 0001322  97.2909 262.8234 15.08828963 80840,6917.914,95.438,540.694,538.865,0.0
54787.0,STARLINK-5441,PAYLOAD,2024-06-05 23:02:36,15.08836376,0.0002039,53.2185,44.6767,87.9861,272.1365,-5.4875e-05,-1.161e-05,0.0,0 STARLINK-5441,1 54787U 22175AF  24157.96014095 -.00001161  00000-0 -54875-4 0  9995,2 54787  53.2185  44.6767 0002039  87.9861 272.1365 15.08836376 83042,6917.891,95.438,541.167,538.346,0.0
54787.0,STARLINK-5441,PAYLOAD,2024-06-07 00:28:46,15.08827946,0.0001991,53.2177,39.9185,89.7884,270.3336,8.7621e-05,1.106e-05,0.0,0 STARLINK-5441,1 54787U 22175AF  24159.01998354  .00001106  00000-0  87621-4 0  9994,2 54787  53.2177  39.9185 0001991  89.7884 270.3336 15.08827946 81044,6917.917,95.438,541.16,538.405,0.0
54787.0,STARLINK-5441,PAYLOAD,2024-06-07 22:44:10,15.08836169,0.000181,53.2173,35.7573,87.1221,272.9978,0.00016038,2.265e-05,0.0,0 STARLINK-5441,1 54787U 22175AF  24159.94734107  .00002265  00000-0  16038-3 0  9990,2 54787  53.2173  35.7573 0001810  87.1221 272.9978 15.08836169 83344,6917.892,95.438,541.009,538.505,0.0
54787.0,STARLINK-5441,PAYLOAD,2024-06-08 01:54:56,15.08836693,0.0001193,53.2187,35.1626,74.0055,286.1069,0.00013253,1.822e-05,0.0,0 STARLINK-5441,1 54787U 22175AF  24160.07982184  .00001822  00000-0  13253-3 0  9990,2 54787  53.2187  35.1626 0001193  74.0055 286.1069 15.08836693 81209,6917.89,95.438,540.581,538.93,0.0
54787.0,STARLINK-5441,PAYLOAD,2024-06-08 08:16:28,15.08851344,0.0001258,53.2179,33.9745,83.8944,276.2191,0.00020084,2.911e-05,0.0,0 STARLINK-5441,1 54787U 22175AF  24160.34477006  .00002911  00000-0  20084-3 0  9992,2 54787  53.2179  33.9745 0001258  83.8944 276.2191 15.08851344 83405,6917.846,95.437,540.581,538.84,0.0
54787.0,STARLINK-5441,PAYLOAD,2024-06-08 22:34:58,15.08826064,0.0001277,53.2185,31.2976,85.5834,274.5304,-6.2313e-05,-1.279e-05,0.0,0 STARLINK-5441,1 54787U 22175AF  24160.94095589 -.00001279  00000-0 -62313-4 0  9990,2 54787  53.2185  31.2976 0001277  85.5834 274.5304 15.08826064 83494,6917.923,95.438,540.671,538.905,0.0
54787.0,STARLINK-5441,PAYLOAD,2024-06-09 01:45:44,15.08828166,0.0001483,53.2189,30.7028,86.3371,273.7791,-4.7062e-05,-1.037e-05,0.0,0 STARLINK-5441,1 54787U 22175AF  24161.07343525 -.00001037  00000-0 -47062-4 0  9997,2 54787  53.2189  30.7028 0001483  86.3371 273.7791 15.08828166 81353,6917.917,95.438,540.807,538.756,0.0
54787.0,STARLINK-5441,PAYLOAD,2024-06-09 20:50:22,15.08841105,0.0001438,53.2201,27.1347,88.3883,271.7273,-1.3331e-05,-5e-06,0.0,0 STARLINK-5441,1 54787U 22175AF  24161.86831046 -.00000500  00000-0 -13331-4 0  9990,2 54787  53.2201  27.1347 0001438  88.3883 271.7273 15.08841105 81476,6917.877,95.437,540.737,538.747,0.0
54787.0,STARLINK-5441,PAYLOAD,2024-06-09 22:25:45,15.08841155,0.0001337,53.2194,26.8363,82.209,277.9054,1.963e-05,2.5e-07,0.0,0 STARLINK-5441,1 54787U 22175AF  24161.93454944  .00000025  00000-0  19630-4 0  9994,2 54787  53.2194  26.8363 0001337  82.2090 277.9054 15.08841155 83643,6917.877,95.437,540.667,538.817,0.0
54787.0,STARLINK-5441,PAYLOAD,2024-06-10 07:58:03,15.08851666,0.000126,53.2182,25.0514,73.0022,287.1108,0.00012767,1.745e-05,0.0,0 STARLINK-5441,1 54787U 22175AF  24162.33197959  .00001745  00000-0  12767-3 0  9992,2 54787  53.2182  25.0514 0001260  73.0022 287.1108 15.08851666 81545,6917.845,95.437,540.581,538.838,0.0
54787.0,STARLINK-5441,PAYLOAD,2024-06-10 20:41:09,15.08835103,0.0001421,53.2183,22.6733,83.7458,276.3696,0.00010527,1.388e-05,0.0,0 STARLINK-5441,1 54787U 22175AF  24162.86191347  .00001388  00000-0  10527-3 0  9990,2 54787  53.2183  22.6733 0001421  83.7458 276.3696 15.08835103 81621,6917.895,95.438,540.743,538.777,0.0
54787.0,STARLINK-5441,PAYLOAD,2024-06-10 22:16:32,15.08836485,0.0001277,53.2178,22.3757,83.2996,276.8142,0.00011725,1.578e-05,0.0,0 STARLINK-5441,1 54787U 22175AF  24162.92815236  .00001578  00000-0  11725-3 0  9999,2 54787  53.2178  22.3757 0001277  83.2996 276.8142 15.08836485 83794,6917.891,95.438,540.64,538.873,0.0
54787.0,STARLINK-5441,PAYLOAD,2024-06-11 07:48:50,15.08847791,0.0001333,53.2185,20.593,89.4768,270.6377,0.00019488,2.816e-05,0.0,0 STARLINK-5441,1 54787U 22175AF  24163.32558377  .00002816  00000-0  19488-3 0  9994,2 54787  53.2185  20.5930 0001333  89.4768 270.6377 15.08847791 83854,6917.857,95.437,540.644,538.799,0.0
54787.0,STARLINK-5441,PAYLOAD,2024-06-11 23:42:42,15.08840931,0.0001116,53.2154,17.6158,96.6967,263.4152,8.2659e-05,1.028e-05,0.0,0 STARLINK-5441,1 54787U 22175AF  24163.98798878  .00001028  00000-0  82659-4 0  9993,2 54787  53.2154  17.6158 0001116  96.6967 263.4152 15.08840931 81790,6917.878,95.437,540.515,538.971,0.0
54787.0,STARLINK-5441,PAYLOAD,2024-06-12 20:22:43,15.08836833,0.0001428,53.2193,13.7479,105.4659,254.6491,1.474e-05,-5.3e-07,0.0,0 STARLINK-5441,1 54787U 22175AF  24164.84911244 -.00000053  00000-0  14740-4 0  9997,2 54787  53.2193  13.7479 0001428 105.4659 254.6491 15.08836833 81928,6917.89,95.438,540.743,538.767,0.0
54787.0,STARLINK-5441,PAYLOAD,2024-06-12 23:33:29,15.08839436,0.000138,53.2198,13.1548,110.6661,249.4479,2.7839e-05,1.55e-06,0.0,0 STARLINK-5441,1 54787U 22175AF  24164.98159346  .00000155  00000-0  27839-4 0  9994,2 54787  53.2198  13.1548 0001380 110.6661 249.4479 15.08839436 84105,6917.882,95.438,540.702,538.792,0.0
54787.0,STARLINK-5441,PAYLOAD,2024-06-13 20:13:29,15.08846804,0.0001247,53.2182,9.2893,110.5297,249.5829,0.00012199,1.654e-05,0.0,0 STARLINK-5441,1 54787U 22175AF  24165.84270658  .00001654  00000-0  12199-3 0  9997,2 54787  53.2182   9.2893 0001247 110.5297 249.5829 15.08846804 84234,6917.86,95.437,540.587,538.862,0.0
54787.0,STARLINK-5441,PAYLOAD,2024-06-13 23:24:16,15.08846117,0.0001426,53.2179,8.6954,119.2651,240.8484,0.00020382,2.958e-05,0.0,0 STARLINK-5441,1 54787U 22175AF  24165.97518823  .00002958  00000-0  20382-3 0  9991,2 54787  53.2179   8.6954 0001426 119.2651 240.8484 15.08846117 84250,6917.862,95.437,540.713,538.74,0.0
54787.0,STARLINK-5441,PAYLOAD,2024-06-14 20:04:17,15.08841823,0.0001136,53.2175,4.8315,80.413,279.699,7.0988e-05,8.42e-06,0.0,0 STARLINK-5441,1 54787U 22175AF  24166.83631174  .00000842  00000-0  70988-4 0  9990,2 54787  53.2175   4.8315 0001136  80.4130 279.6990 15.08841823 84389,6917.875,95.437,540.526,538.954,0.0
54787.0,STARLINK-5441,PAYLOAD,2024-06-15 13:33:32,15.08833479,0.000127,53.2175,1.5593,95.9426,264.1711,-9.4044e-05,-1.784e-05,0.0,0 STARLINK-5441,1 54787U 22175AF  24167.56495416 -.00001784  00000-0 -94044-4 0  9995,2 54787  53.2175   1.5593 0001270  95.9426 264.1711 15.08833479 84499,6917.9,95.438,540.644,538.887,0.0
54787.0,STARLINK-5441,PAYLOAD,2024-06-15 19:55:04,15.08842223,0.0001119,53.2173,0.3726,93.88,266.232,9.0834e-06,-1.43e-06,0.0,0 STARLINK-5441,1 54787U 22175AF  24167.82991267 -.00000143  00000-0  90834-5 0  9990,2 54787  53.2173   0.3726 0001119  93.8800 266.2320 15.08842223 84538,6917.874,95.437,540.513,538.964,0.0
54787.0,STARLINK-5441,PAYLOAD,2024-06-16 05:27:22,15.08854565,0.0001359,53.2189,358.5892,83.7277,276.387,9.9552e-05,1.297e-05,0.0,0 STARLINK-5441,1 54787U 22175AF  24168.22734283  .00001297  00000-0  99552-4 0  9993,2 54787  53.2189 358.5892 0001359  83.7277 276.3870 15.08854565 84599,6917.836,95.437,540.641,538.761,0.0
54787.0,STARLINK-5441,PAYLOAD,2024-06-16 19:45:51,15.08832956,0.0001199,53.2176,355.9129,99.5192,260.5936,-4.8672e-05,-1.062e-05,0.0,0 STARLINK-5441,1 54787U 22175AF  24168.82351540 -.00001062  00000-0 -48672-4 0  9999,2 54787  53.2176 355.9129 0001199  99.5192 260.5936 15.08832956 84680,6917.902,95.438,540.596,538.937,0.0
54787.0,STARLINK-5441,PAYLOAD,2024-06-17 19:36:39,15.08834613,0.0001289,53.218,351.4521,89.816,270.298,3.0183e-05,1.92e-06,0.0,0 STARLINK-5441,1 54787U 22175AF  24169.81711834  .00000192  00000-0  30183-4 0  9994,2 54787  53.2180 351.4521 0001289  89.8160 270.2980 15.08834613 84835,6917.897,95.438,540.654,538.87,0.0
54787.0,STARLINK-5441,PAYLOAD,2024-06-18 05:08:57,15.08847534,0.0001415,53.2173,349.6662,82.1262,277.9891,0.00014176,1.969e-05,0.0,0 STARLINK-5441,1 54787U 22175AF  24170.21455181  .00001969  00000-0  14176-3 0  9996,2 54787  53.2173 349.6662 0001415  82.1262 277.9891 15.08847534 84899,6917.857,95.437,540.701,538.743,0.0
54787.0,STARLINK-5441,PAYLOAD,2024-06-18 21:02:49,15.08842159,0.0001268,53.2176,346.692,83.8015,276.3121,0.00014956,2.093e-05,0.0,0 STARLINK-5441,1 54787U 22175AF  24170.87695728  .00002093  00000-0  14956-3 0  9996,2 54787  53.2176 346.6920 0001268  83.8015 276.3121 15.08842159 82835,6917.874,95.437,540.616,538.862,0.0
54787.0,STARLINK-5441,PAYLOAD,2024-06-19 11:21:17,15.08841973,0.0001338,53.2158,344.0185,86.5073,273.6072,0.00013632,1.882e-05,0.0,0 STARLINK-5441,1 54787U 22175AF  24171.47311751  .00001882  00000-0  13632-3 0  9999,2 54787  53.2158 344.0185 0001338  86.5073 273.6072 15.08841973 85080,6917.874,95.437,540.665,538.814,0.0
